{"type":"FeatureCollection","features":[{"type":"Feature","geometry":{"type":"Point","coordinates":[107.0007738718027,-6.241855444880738,0]},"properties":{"Nama RS":"RSUD dr. Chasbullah Abdulmadjid Kota Bekasi","Maps":"https://share.google/U5sAfLLVBimgyoY6p","Tipe":"B","Alamat":"Jl. Pramuka No.55, RT.006/RW.006, Marga Jaya, Kec. Bekasi Sel., Kota Bks, Jawa Barat 17141, MARGA JAYA, BEKASI SELATAN","Rumah Sakit":"RSUD dr. Chasbullah Abdulmadjid Kota Bekasi"}},{"type":"Feature","geometry":{"type":"Point","coordinates":[106.9948352770032,-6.241730816369755,0]},"properties":{"Nama RS":"Rumah Sakit Hermina Bekasi","Maps":"https://share.google/IMw7Mh7v3KvoSTuGK","Tipe":"B","Alamat":"Jalan Kemakmuran №39, Marga Jaya, Kec. Bekasi Selatan, Kota Bekasi, Jawa Barat 17141, MARGA JAYA, BEKASI SELATAN","Rumah Sakit":"Rumah Sakit Hermina Bekasi"}},{"type":"Feature","geometry":{"type":"Point","coordinates":[106.9721879181992,-6.268808941338328,0]},"properties":{"Nama RS":"Rumah Sakit Hermina Galaxy","Maps":"https://share.google/EC8kXPojFZjV5Iwdz","Tipe":"C","Alamat":"Jalan Gardenia Raya No. 11, Jakasetia, Kec. Bekasi Selatan, Kota Bekasi, Jawa Barat 17147, JAKA SETIA, BEKASI SELATAN","Rumah Sakit":"Rumah Sakit Hermina Galaxy"}},{"type":"Feature","geometry":{"type":"Point","coordinates":[106.9989732779109,-6.186136607586324,0]},"properties":{"Nama RS":"Rumah Sakit Medik Zainuttaqwa","Maps":"https://share.google/oVTirtX3lyFx2miyt","Tipe":"C","Alamat":"Jalan Raya Kaliabang Tengah No 23, Pejuang, Kec. Medansatria, Kota Bekasi, Jawa Barat 17131, PEJUANG, MEDAN SATRIA","Rumah Sakit":"Rumah Sakit Medik Zainuttaqwa"}},{"type":"Feature","geometry":{"type":"Point","coordinates":[107.0162502539064,-6.308338292204136,0]},"properties":{"Nama RS":"Rumah Sakit Mustika Medika Bekasi","Maps":"https://share.google/QIvnAOCuGm8H4J21w","Tipe":"D","Alamat":"Jalan Kelapa Dua No 110, Padurenan, Kec. Mustikajaya, Kota Bekasi, Jawa Barat 17156, PADURENAN, MUSTIKA JAYA","Rumah Sakit":"Rumah Sakit Mustika Medika Bekasi"}},{"type":"Feature","geometry":{"type":"Point","coordinates":[106.9210975841989,-6.296351992004447,0]},"properties":{"Nama RS":"Rumah Sakit Persada Medika","Maps":"https://maps.app.goo.gl/kJDoJmXTS6uxCiiG9","Tipe":"C","Alamat":"Jalan Raya Hankam No 56, Jatirahayu, Kec. Pondokmelati, Kota Bekasi, Jawa Barat 17414, JATIRAHAYU, PONDOK MELATI","Rumah Sakit":"Rumah Sakit Persada Medika"}},{"type":"Feature","geometry":{"type":"Point","coordinates":[106.9837550302548,-6.247582616264778,0]},"properties":{"Nama RS":"Rumah Sakit Primaya Bekasi Barat","Maps":"https://share.google/vC1hw56xe73Nb4IkH","Tipe":"A","Alamat":"Jalan KH. Noer Ali No 17, Kayuringin Jaya, Kec. Bekasi Selatan, Kota Bekasi, Jawa Barat 17144, KAYURINGIN JAYA, BEKASI SELATAN","Rumah Sakit":"Rumah Sakit Primaya Bekasi Barat"}},{"type":"Feature","geometry":{"type":"Point","coordinates":[107.0205125055948,-6.260058483642019,0]},"properties":{"Nama RS":"Rumah Sakit Primaya Bekasi Timur ","Maps":"https://share.google/1mx6Iu61Xm1P2MAn0","Tipe":"B","Alamat":"Jalan Chairil Anwar No 27, Margahayu, Kec. Bekasi Timur, Kota Bekasi, Jawa Barat 17113, MARGAHAYU, BEKASI TIMUR","Rumah Sakit":"Rumah Sakit Primaya Bekasi Timur "}},{"type":"Feature","geometry":{"type":"Point","coordinates":[106.9888730579472,-6.201960045719103,0]},"properties":{"Nama RS":"Rumah Sakit Seto Hasbadi","Maps":"https://share.google/JScThFnvgZ7WG4H2Y","Tipe":"D","Alamat":"Jalan Raya Seroja No 19, Harapan Jaya, Kec. Bekasi Utara, Kota Bekasi, Jawa Barat 17124, HARAPAN JAYA, BEKASI UTARA","Rumah Sakit":"Rumah Sakit Seto Hasbadi"}},{"type":"Feature","geometry":{"type":"Point","coordinates":[107.0086113772653,-6.256873044673299,0]},"properties":{"Nama RS":"Rumah Sakit Siloam Bekasi Timur","Maps":"https://share.google/WYJgCGPgfWuTvgf1Q","Tipe":"C","Alamat":"Jalan Chairil Anwar No 27, Margahayu, Kec. Bekasi Timur, Kota Bekasi, Jawa Barat 17113, MARGAHAYU, BEKASI TIMUR","Rumah Sakit":"Rumah Sakit Siloam Bekasi Timur"}},{"type":"Feature","geometry":{"type":"Point","coordinates":[107.0265133914746,-6.242799068114556,0]},"properties":{"Nama RS":"Rumah Sakit Siloam Sentosa","Maps":"https://share.google/cuUcT977iDkOkiby5","Tipe":"C","Alamat":"Jalan Pahlawan No 60, Duren Jaya, Kec. Bekasi Timur, Kota Bekasi, Jawa Barat 17111, DUREN JAYA, BEKASI TIMUR","Rumah Sakit":"Rumah Sakit Siloam Sentosa"}},{"type":"Feature","geometry":{"type":"Point","coordinates":[106.9986835277694,-6.269542602251168,0]},"properties":{"Nama RS":"Rumah Sakit Siloam Sepanjang Jaya","Maps":"https://share.google/R6dXdxzai8ZTtTy9W","Tipe":"C","Alamat":"Jalan Pramuka No 12, Sepanjang Jaya, Kec. Rawalumbu, Kota Bekasi, Jawa Barat 17114, SEPANJANG JAYA, RAWALUMBU","Rumah Sakit":"Rumah Sakit Siloam Sepanjang Jaya"}},{"type":"Feature","geometry":{"type":"Point","coordinates":[106.9986187962555,-6.176606813552093,0]},"properties":{"Nama RS":"Rumah Sakit Taman Harapan Baru","Maps":"https://share.google/cSWORvyKO1QoG6ykB","Tipe":"C","Alamat":"Jalan Kaliabang Bungur No 2, Pejuang, Kec. Medansatria, Kota Bekasi, Jawa Barat 17125, PEJUANG, MEDAN SATRIA","Rumah Sakit":"Rumah Sakit Taman Harapan Baru"}},{"type":"Feature","geometry":{"type":"Point","coordinates":[106.912691236609,-6.275639791236758,0]},"properties":{"Nama RS":"RSIA Karunia Kasih","Maps":"https://share.google/ChjNWm8vc2YGr1ODm","Tipe":"C","Alamat":"Jalan Raya Jatiwaringin No 133, Jatiwaringin, Kec. Pondokgede, Kota Bekasi, Jawa Barat 17411, JATIWARINGIN, PONDOK GEDE","Rumah Sakit":"RSIA Karunia Kasih"}},{"type":"Feature","geometry":{"type":"Point","coordinates":[106.9887162051352,-6.204454968800714,0]},"properties":{"Nama RS":"RSIA Rinova Intan","Maps":"https://share.google/EY9fuJSovcq4I7Mgk","Tipe":"C","Alamat":"Jalan Raya Seroja No 16, Harapan Jaya, Kec. Bekasi Utara, Kota Bekasi, Jawa Barat 17124, HARAPAN JAYA, BEKASI UTARA","Rumah Sakit":"RSIA Rinova Intan"}},{"type":"Feature","geometry":{"type":"Point","coordinates":[106.9584318564527,-6.231049720533846,0]},"properties":{"Nama RS":"RSIA Selasih Medika","Maps":"https://share.google/3KJoGpwrNZUScL0qa","Tipe":"C","Alamat":"Jalan Bintara No 5, Bintara, Kec. Bekasi Barat, Kota Bekasi, Jawa Barat 17134, BINTARA, BEKASI BARAT","Rumah Sakit":"RSIA Selasih Medika"}},{"type":"Feature","geometry":{"type":"Point","coordinates":[106.9765659432914,-6.274777390752349,0]},"properties":{"Nama RS":"RSU Anna","Maps":"https://maps.app.goo.gl/stFJESjdiMf6rpmr7?g_st=ac","Tipe":"C","Alamat":"Jl. Raya Pekayon No.36, RT.004/RW.001, Jaka Setia, Kec. Bekasi Sel., Kota Bks, Jawa Barat 17147, JAKA SETIA, BEKASI SELATAN","Rumah Sakit":"RSU Anna"}},{"type":"Feature","geometry":{"type":"Point","coordinates":[107.0221007433396,-6.222798236794627,0]},"properties":{"Nama RS":"RSU Anna Medika","Maps":"https://maps.app.goo.gl/FPrAMrtmeg8XMeit7?g_st=ac","Tipe":"C","Alamat":"Jl. Perjuangan No.45, RT.003/RW.003, Harapan Baru, Kec. Bekasi Utara, Kota Bks, Jawa Barat 17123, HARAPAN BARU, BEKASI UTARA","Rumah Sakit":"RSU Anna Medika"}},{"type":"Feature","geometry":{"type":"Point","coordinates":[107.0105159014744,-6.246948669697085,0]},"properties":{"Nama RS":"RSU Bella","Maps":"https://share.google/KnTb7FfuVbkMVP8ZJ","Tipe":"C","Alamat":"Jl. Insinyur H. Juanda No.141, RT.001/RW.001, Duren Jaya, Kec. Bekasi Tim., Kota Bks, Jawa Barat 17111, DUREN JAYA, BEKASI TIMUR","Rumah Sakit":"RSU Bella"}},{"type":"Feature","geometry":{"type":"Point","coordinates":[107.0014310835616,-6.247960398531147,0]},"properties":{"Nama RS":"RSU Bhakti Kartini","Maps":"https://share.google/zVAIH6TAF9nC8Trov","Tipe":"C","Alamat":"Jl. RA Kartini, RT.004/RW.003, Margahayu, Kec. Bekasi Tim., Kota Bks, Jawa Barat 17113, MARGAHAYU, BEKASI TIMUR","Rumah Sakit":"RSU Bhakti Kartini"}},{"type":"Feature","geometry":{"type":"Point","coordinates":[106.9811823383737,-6.247732794857472,0]},"properties":{"Nama RS":"Rumah Sakit Budi Lestari","Maps":"https://share.google/6MlSwm9Nrg84z02cV","Tipe":"C","Alamat":"Jl. Cendrawasih Raya No.10, RT.001/RW.002, Kayuringin Jaya, Kec. Bekasi Sel., Kota Bks, Jawa Barat 17144, KAYURINGIN JAYA, BEKASI SELATAN","Rumah Sakit":"Rumah Sakit Budi Lestari"}},{"type":"Feature","geometry":{"type":"Point","coordinates":[106.9599009620593,-6.278070375150611,0]},"properties":{"Nama RS":"RSU Cikunir","Maps":"https://share.google/UTUhkRK7AfgOdzdcC","Tipe":"D","Alamat":"Jl. Cikunir Raya Gg. H. Napiah No.8, RT.003/RW.003, Jaka Mulya, Kec. Bekasi Sel., Kota Bks, Jawa Barat 17146, JAKA MULYA, BEKASI SELATAN","Rumah Sakit":"RSU Cikunir"}},{"type":"Feature","geometry":{"type":"Point","coordinates":[106.9775309416502,-6.185036377715829,0]},"properties":{"Nama RS":"RSU Citra Harapan","Maps":"https://share.google/ikHjVN6mXwpm32Yo1","Tipe":"C","Alamat":"Jl. Harapan Indah No.28, RT.004/RW.030, Pejuang, Kecamatan Medan Satria, Kota Bks, Jawa Barat 17131, PEJUANG, MEDAN SATRIA","Rumah Sakit":"RSU Citra Harapan"}},{"type":"Feature","geometry":{"type":"Point","coordinates":[107.0298355899469,-6.251900263655885,0]},"properties":{"Nama RS":"RSU Graha Juanda","Maps":"https://share.google/CSp0ZCVdUVLyvLeod","Tipe":"C","Alamat":"Jl. Insinyur H. Juanda No.326, RT.001/RW.021, Sasak Juanda, Kec. Bekasi Tim., Kota Bks, Jawa Barat 17133, MARGAHAYU, BEKASI TIMUR","Rumah Sakit":"RSU Graha Juanda"}},{"type":"Feature","geometry":{"type":"Point","coordinates":[107.0036181519447,-6.245851676756043,0]},"properties":{"Nama RS":"RSU Islam dr. Subki Abdulkadir","Maps":"https://share.google/3FRBB28clYCs4p14Y","Tipe":"D","Alamat":"Jl. RA Kartini No.66, RT.002/RW.002, Margahayu, Kec. Bekasi Tim., Kota Bks, Jawa Barat 17113, MARGAHAYU, BEKASI TIMUR","Rumah Sakit":"RSU Islam dr. Subki Abdulkadir"}},{"type":"Feature","geometry":{"type":"Point","coordinates":[106.9257883589629,-6.347045367930807,0]},"properties":{"Nama RS":"Rumah Sakit Jatisampurna","Maps":"https://share.google/1koE8iN0jKrivwHPA","Tipe":"D","Alamat":"Jl. Studio ANTV, RT.003/RW.007, Jatiraden, Kec. Jatisampurna, Kota Bks, Jawa Barat 17433, JATIRADEN, JATISAMPURNA","Rumah Sakit":"Rumah Sakit Jatisampurna"}},{"type":"Feature","geometry":{"type":"Point","coordinates":[106.9215091657786,-6.363575484582941,0]},"properties":{"Nama RS":"RSUD Jatisampurna","Maps":"https://share.google/hl1ISRK9w8BN2PgjJ","Tipe":"D","Alamat":"Jl. Raya Kranggan No.26, RT.001/RW.004, Jatisampurna, Kec. Jatisampurna, Kota Bks, Jawa Barat 17433","Rumah Sakit":"RSUD Jatisampurna"}},{"type":"Feature","geometry":{"type":"Point","coordinates":[107.0009102687147,-6.251834624444371,0]},"properties":{"Nama RS":"RSU Juwita","Maps":"https://share.google/SIXTne0pwwVPjQq0U","Tipe":"C","Alamat":"Jl. Mayor Madmuin Hasibuan No.78, RT.001/RW.024, Margahayu, Kec. Bekasi Tim., Kota Bks, Jawa Barat 17113, MARGAHAYU, BEKASI TIMUR","Rumah Sakit":"RSU Juwita"}},{"type":"Feature","geometry":{"type":"Point","coordinates":[106.963496450896,-6.294501259720446,0]},"properties":{"Nama RS":"Rumah Sakit Kartika Husada Jatiasih","Maps":"https://share.google/UnzCcoDOKLsKLuL3U","Tipe":"C","Alamat":"Jl. Raya Jatiasih No.72, RT.004/RW.005, Jatiasih, Kec. Jatiasih, Kota Bks, Jawa Barat 17423, JATIASIH, JATIASIH","Rumah Sakit":"Rumah Sakit Kartika Husada Jatiasih"}},{"type":"Feature","geometry":{"type":"Point","coordinates":[106.985212619897,-6.319652727532389,0]},"properties":{"Nama RS":"RSU Karya Medika ","Maps":"https://share.google/BdeAatHj4z6arvhtO","Tipe":"D","Alamat":"Jl. Raya Narogong No.KM. 11, RT.002/RW.010, Bantargebang, Kec. Bantar Gebang, Kota Bks, Jawa Barat 17151, BANTARGEBANG, BANTARGEBANG","Rumah Sakit":"RSU Karya Medika "}},{"type":"Feature","geometry":{"type":"Point","coordinates":[106.9300807325931,-6.282075218314407,0]},"properties":{"Nama RS":"RSU Masmitra","Maps":"https://share.google/7TU05xVukQQ3Kvt29","Tipe":"C","Alamat":"Jl. Raya Jati Makmur No.40, RT.001/RW.011, Jatimakmur, Kec. Pd. Gede, Kota Bks, Jawa Barat 17413, JATIMAKMUR, PONDOK GEDE","Rumah Sakit":"RSU Masmitra"}},{"type":"Feature","geometry":{"type":"Point","coordinates":[106.9926463653769,-6.240886074598159,0]},"properties":{"Nama RS":"RSU Mitra Keluarga Bekasi","Maps":"https://share.google/mhuQDQ1A21hqgEqg6","Tipe":"B","Alamat":"Jl. Ahmad Yani, RT.002/RW.011, Kayuringin Jaya, Kec. Bekasi Sel., Kota Bks, Jawa Barat 17144, KAYURINGIN JAYA, BEKASI SELATAN","Rumah Sakit":"RSU Mitra Keluarga Bekasi"}},{"type":"Feature","geometry":{"type":"Point","coordinates":[107.0130608551957,-6.26044754738937,0]},"properties":{"Nama RS":"RSU Mitra Keluarga Bekasi Timur","Maps":"https://share.google/ulY4q1rSNoMLh2EMs","Tipe":"B","Alamat":"Jl. Pengasinan Jl. Raya Rw. Semut, RT.04/RW.12, Margahayu, Kec. Bekasi Tim., Kota Bks, Jawa Barat 17113, MARGAHAYU, BEKASI TIMUR","Rumah Sakit":"RSU Mitra Keluarga Bekasi Timur"}},{"type":"Feature","geometry":{"type":"Point","coordinates":[106.9184176716794,-6.37561387729504,0]},"properties":{"Nama RS":"RSU Mitra Keluarga Cibubur","Maps":"https://share.google/VSFaKJ5vRQMKI5UfC","Tipe":"C","Alamat":"Jl. Transyogi, RT.002/RW.009, Cibubur, Kec. Jatisampurna, Kota Bks, Jawa Barat 17435, JATISAMPURNA, JATISAMPURNA","Rumah Sakit":"RSU Mitra Keluarga Cibubur"}},{"type":"Feature","geometry":{"type":"Point","coordinates":[107.0315624434528,-6.291041940063924,0]},"properties":{"Nama RS":"Rumah Sakit Permata Bekasi","Maps":"https://share.google/XuHdIYzMShiN0OpkU","Tipe":"C","Alamat":"Jl. Mustika Jaya No.9, Mustika Jaya, Kec. Mustika Jaya, Kota Bks, Jawa Barat 17158, MUSTIKAJAYA, MUSTIKA JAYA","Rumah Sakit":"Rumah Sakit Permata Bekasi"}},{"type":"Feature","geometry":{"type":"Point","coordinates":[106.9119460948316,-6.375808483046061,0]},"properties":{"Nama RS":"Rumah Sakit Permata Cibubur","Maps":"https://share.google/Hu2EynIupdDwMAJdU","Tipe":"C","Alamat":"Jl. Alternatif Cibubur No.6A, RT.001/RW.002, Jatikarya, Kec. Jatisampurna, Kota Bks, Jawa Barat 17435, JATIKARYA, JATISAMPURNA","Rumah Sakit":"Rumah Sakit Permata Cibubur"}},{"type":"Feature","geometry":{"type":"Point","coordinates":[106.9988215707645,-6.280520241543489,0]},"properties":{"Nama RS":"Rumah Sakit Rawalumbu","Maps":"https://share.google/Fz3usj7CgwXUkx2Vt","Tipe":"C","Alamat":"Jl. Dasa Darma No.Kav. 20 - 23, RT.002/RW.004, Bojong Rawalumbu, Kec. Rawalumbu, Kota Bks, Jawa Barat 17116, BOJONG RAWALUMBU, RAWALUMBU","Rumah Sakit":"Rumah Sakit Rawalumbu"}},{"type":"Feature","geometry":{"type":"Point","coordinates":[107.012252177503,-6.318087843330716,0]},"properties":{"Nama RS":"Rumah Sakit Satria Medika","Maps":"https://share.google/MqF5y1rrzqxWCWCGb","Tipe":"C","Alamat":"Jl. Bantar Gebang Setu No.119, RT.002/RW.006, Padurenan, Kec. Mustika Jaya, Kota Bks, Jawa Barat 17156, PADURENAN, MUSTIKA JAYA","Rumah Sakit":"Rumah Sakit Satria Medika"}},{"type":"Feature","geometry":{"type":"Point","coordinates":[106.9915182784785,-6.276093162310851,0]},"properties":{"Nama RS":"Rumah Sakit St. Elisabeth","Maps":"https://share.google/ML4DxxOjB538cc7DA","Tipe":"C","Alamat":"Jl. Kemang Pratama Raya Jl. Raya Narogong No.202, RT.002/RW.001, Bojong Rawalumbu, Kec. Rawalumbu, Kota Bks, Jawa Barat 17116, BOJONG RAWALUMBU, RAWALUMBU","Rumah Sakit":"Rumah Sakit St. Elisabeth"}}]}